<?xml version="1.0" encoding="UTF-8"?>
<gpx version="1.1" creator="Fog of Spain" xmlns="http://www.topografix.com/GPX/1/1">
<metadata><name>Fog of Spain · Paseo de demo por Madrid</name></metadata>
<trk><name>Sol · Plaza de España · Palacio Real</name><trkseg>
<trkpt lat="40.416900" lon="-3.703500"><time>2026-10-04T10:00:00Z</time></trkpt>
<trkpt lat="40.416977" lon="-3.703436"><time>2026-10-04T10:00:07Z</time></trkpt>
<trkpt lat="40.417055" lon="-3.703373"><time>2026-10-04T10:00:14Z</time></trkpt>
<trkpt lat="40.417132" lon="-3.703309"><time>2026-10-04T10:00:21Z</time></trkpt>
<trkpt lat="40.417209" lon="-3.703245"><time>2026-10-04T10:00:28Z</time></trkpt>
<trkpt lat="40.417286" lon="-3.703182"><time>2026-10-04T10:00:36Z</time></trkpt>
<trkpt lat="40.417364" lon="-3.703118"><time>2026-10-04T10:00:43Z</time></trkpt>
<trkpt lat="40.417441" lon="-3.703055"><time>2026-10-04T10:00:50Z</time></trkpt>
<trkpt lat="40.417518" lon="-3.702991"><time>2026-10-04T10:00:57Z</time></trkpt>
<trkpt lat="40.417595" lon="-3.702927"><time>2026-10-04T10:01:05Z</time></trkpt>
<trkpt lat="40.417673" lon="-3.702864"><time>2026-10-04T10:01:12Z</time></trkpt>
<trkpt lat="40.417750" lon="-3.702800"><time>2026-10-04T10:01:19Z</time></trkpt>
<trkpt lat="40.417827" lon="-3.702736"><time>2026-10-04T10:01:26Z</time></trkpt>
<trkpt lat="40.417905" lon="-3.702673"><time>2026-10-04T10:01:34Z</time></trkpt>
<trkpt lat="40.417982" lon="-3.702609"><time>2026-10-04T10:01:41Z</time></trkpt>
<trkpt lat="40.418059" lon="-3.702545"><time>2026-10-04T10:01:48Z</time></trkpt>
<trkpt lat="40.418136" lon="-3.702482"><time>2026-10-04T10:01:55Z</time></trkpt>
<trkpt lat="40.418214" lon="-3.702418"><time>2026-10-04T10:02:03Z</time></trkpt>
<trkpt lat="40.418291" lon="-3.702355"><time>2026-10-04T10:02:10Z</time></trkpt>
<trkpt lat="40.418368" lon="-3.702291"><time>2026-10-04T10:02:17Z</time></trkpt>
<trkpt lat="40.418445" lon="-3.702227"><time>2026-10-04T10:02:24Z</time></trkpt>
<trkpt lat="40.418523" lon="-3.702164"><time>2026-10-04T10:02:32Z</time></trkpt>
<trkpt lat="40.418600" lon="-3.702100"><time>2026-10-04T10:02:39Z</time></trkpt>
<trkpt lat="40.418688" lon="-3.702076"><time>2026-10-04T10:02:46Z</time></trkpt>
<trkpt lat="40.418776" lon="-3.702053"><time>2026-10-04T10:02:53Z</time></trkpt>
<trkpt lat="40.418865" lon="-3.702029"><time>2026-10-04T10:03:00Z</time></trkpt>
<trkpt lat="40.418953" lon="-3.702006"><time>2026-10-04T10:03:07Z</time></trkpt>
<trkpt lat="40.419041" lon="-3.701982"><time>2026-10-04T10:03:15Z</time></trkpt>
<trkpt lat="40.419129" lon="-3.701959"><time>2026-10-04T10:03:22Z</time></trkpt>
<trkpt lat="40.419218" lon="-3.701935"><time>2026-10-04T10:03:29Z</time></trkpt>
<trkpt lat="40.419306" lon="-3.701912"><time>2026-10-04T10:03:36Z</time></trkpt>
<trkpt lat="40.419394" lon="-3.701888"><time>2026-10-04T10:03:43Z</time></trkpt>
<trkpt lat="40.419482" lon="-3.701865"><time>2026-10-04T10:03:50Z</time></trkpt>
<trkpt lat="40.419571" lon="-3.701841"><time>2026-10-04T10:03:58Z</time></trkpt>
<trkpt lat="40.419659" lon="-3.701818"><time>2026-10-04T10:04:05Z</time></trkpt>
<trkpt lat="40.419747" lon="-3.701794"><time>2026-10-04T10:04:12Z</time></trkpt>
<trkpt lat="40.419835" lon="-3.701771"><time>2026-10-04T10:04:19Z</time></trkpt>
<trkpt lat="40.419924" lon="-3.701747"><time>2026-10-04T10:04:26Z</time></trkpt>
<trkpt lat="40.420012" lon="-3.701724"><time>2026-10-04T10:04:33Z</time></trkpt>
<trkpt lat="40.420100" lon="-3.701700"><time>2026-10-04T10:04:40Z</time></trkpt>
<trkpt lat="40.420106" lon="-3.701821"><time>2026-10-04T10:04:48Z</time></trkpt>
<trkpt lat="40.420112" lon="-3.701941"><time>2026-10-04T10:04:55Z</time></trkpt>
<trkpt lat="40.420118" lon="-3.702062"><time>2026-10-04T10:05:02Z</time></trkpt>
<trkpt lat="40.420124" lon="-3.702182"><time>2026-10-04T10:05:10Z</time></trkpt>
<trkpt lat="40.420129" lon="-3.702303"><time>2026-10-04T10:05:17Z</time></trkpt>
<trkpt lat="40.420135" lon="-3.702424"><time>2026-10-04T10:05:24Z</time></trkpt>
<trkpt lat="40.420141" lon="-3.702544"><time>2026-10-04T10:05:32Z</time></trkpt>
<trkpt lat="40.420147" lon="-3.702665"><time>2026-10-04T10:05:39Z</time></trkpt>
<trkpt lat="40.420153" lon="-3.702785"><time>2026-10-04T10:05:46Z</time></trkpt>
<trkpt lat="40.420159" lon="-3.702906"><time>2026-10-04T10:05:54Z</time></trkpt>
<trkpt lat="40.420165" lon="-3.703026"><time>2026-10-04T10:06:01Z</time></trkpt>
<trkpt lat="40.420171" lon="-3.703147"><time>2026-10-04T10:06:08Z</time></trkpt>
<trkpt lat="40.420176" lon="-3.703268"><time>2026-10-04T10:06:15Z</time></trkpt>
<trkpt lat="40.420182" lon="-3.703388"><time>2026-10-04T10:06:23Z</time></trkpt>
<trkpt lat="40.420188" lon="-3.703509"><time>2026-10-04T10:06:30Z</time></trkpt>
<trkpt lat="40.420194" lon="-3.703629"><time>2026-10-04T10:06:37Z</time></trkpt>
<trkpt lat="40.420200" lon="-3.703750"><time>2026-10-04T10:06:45Z</time></trkpt>
<trkpt lat="40.420206" lon="-3.703871"><time>2026-10-04T10:06:52Z</time></trkpt>
<trkpt lat="40.420212" lon="-3.703991"><time>2026-10-04T10:06:59Z</time></trkpt>
<trkpt lat="40.420218" lon="-3.704112"><time>2026-10-04T10:07:07Z</time></trkpt>
<trkpt lat="40.420224" lon="-3.704232"><time>2026-10-04T10:07:14Z</time></trkpt>
<trkpt lat="40.420229" lon="-3.704353"><time>2026-10-04T10:07:21Z</time></trkpt>
<trkpt lat="40.420235" lon="-3.704474"><time>2026-10-04T10:07:28Z</time></trkpt>
<trkpt lat="40.420241" lon="-3.704594"><time>2026-10-04T10:07:36Z</time></trkpt>
<trkpt lat="40.420247" lon="-3.704715"><time>2026-10-04T10:07:43Z</time></trkpt>
<trkpt lat="40.420253" lon="-3.704835"><time>2026-10-04T10:07:50Z</time></trkpt>
<trkpt lat="40.420259" lon="-3.704956"><time>2026-10-04T10:07:58Z</time></trkpt>
<trkpt lat="40.420265" lon="-3.705076"><time>2026-10-04T10:08:05Z</time></trkpt>
<trkpt lat="40.420271" lon="-3.705197"><time>2026-10-04T10:08:12Z</time></trkpt>
<trkpt lat="40.420276" lon="-3.705318"><time>2026-10-04T10:08:20Z</time></trkpt>
<trkpt lat="40.420282" lon="-3.705438"><time>2026-10-04T10:08:27Z</time></trkpt>
<trkpt lat="40.420288" lon="-3.705559"><time>2026-10-04T10:08:34Z</time></trkpt>
<trkpt lat="40.420294" lon="-3.705679"><time>2026-10-04T10:08:42Z</time></trkpt>
<trkpt lat="40.420300" lon="-3.705800"><time>2026-10-04T10:08:49Z</time></trkpt>
<trkpt lat="40.420368" lon="-3.705881"><time>2026-10-04T10:08:56Z</time></trkpt>
<trkpt lat="40.420435" lon="-3.705961"><time>2026-10-04T10:09:03Z</time></trkpt>
<trkpt lat="40.420503" lon="-3.706042"><time>2026-10-04T10:09:11Z</time></trkpt>
<trkpt lat="40.420571" lon="-3.706123"><time>2026-10-04T10:09:18Z</time></trkpt>
<trkpt lat="40.420639" lon="-3.706203"><time>2026-10-04T10:09:25Z</time></trkpt>
<trkpt lat="40.420706" lon="-3.706284"><time>2026-10-04T10:09:32Z</time></trkpt>
<trkpt lat="40.420774" lon="-3.706365"><time>2026-10-04T10:09:40Z</time></trkpt>
<trkpt lat="40.420842" lon="-3.706445"><time>2026-10-04T10:09:47Z</time></trkpt>
<trkpt lat="40.420910" lon="-3.706526"><time>2026-10-04T10:09:54Z</time></trkpt>
<trkpt lat="40.420977" lon="-3.706606"><time>2026-10-04T10:10:01Z</time></trkpt>
<trkpt lat="40.421045" lon="-3.706687"><time>2026-10-04T10:10:09Z</time></trkpt>
<trkpt lat="40.421113" lon="-3.706768"><time>2026-10-04T10:10:16Z</time></trkpt>
<trkpt lat="40.421181" lon="-3.706848"><time>2026-10-04T10:10:23Z</time></trkpt>
<trkpt lat="40.421248" lon="-3.706929"><time>2026-10-04T10:10:31Z</time></trkpt>
<trkpt lat="40.421316" lon="-3.707010"><time>2026-10-04T10:10:38Z</time></trkpt>
<trkpt lat="40.421384" lon="-3.707090"><time>2026-10-04T10:10:45Z</time></trkpt>
<trkpt lat="40.421452" lon="-3.707171"><time>2026-10-04T10:10:52Z</time></trkpt>
<trkpt lat="40.421519" lon="-3.707252"><time>2026-10-04T10:11:00Z</time></trkpt>
<trkpt lat="40.421587" lon="-3.707332"><time>2026-10-04T10:11:07Z</time></trkpt>
<trkpt lat="40.421655" lon="-3.707413"><time>2026-10-04T10:11:14Z</time></trkpt>
<trkpt lat="40.421723" lon="-3.707494"><time>2026-10-04T10:11:21Z</time></trkpt>
<trkpt lat="40.421790" lon="-3.707574"><time>2026-10-04T10:11:29Z</time></trkpt>
<trkpt lat="40.421858" lon="-3.707655"><time>2026-10-04T10:11:36Z</time></trkpt>
<trkpt lat="40.421926" lon="-3.707735"><time>2026-10-04T10:11:43Z</time></trkpt>
<trkpt lat="40.421994" lon="-3.707816"><time>2026-10-04T10:11:50Z</time></trkpt>
<trkpt lat="40.422061" lon="-3.707897"><time>2026-10-04T10:11:58Z</time></trkpt>
<trkpt lat="40.422129" lon="-3.707977"><time>2026-10-04T10:12:05Z</time></trkpt>
<trkpt lat="40.422197" lon="-3.708058"><time>2026-10-04T10:12:12Z</time></trkpt>
<trkpt lat="40.422265" lon="-3.708139"><time>2026-10-04T10:12:19Z</time></trkpt>
<trkpt lat="40.422332" lon="-3.708219"><time>2026-10-04T10:12:27Z</time></trkpt>
<trkpt lat="40.422400" lon="-3.708300"><time>2026-10-04T10:12:34Z</time></trkpt>
<trkpt lat="40.422429" lon="-3.708412"><time>2026-10-04T10:12:41Z</time></trkpt>
<trkpt lat="40.422459" lon="-3.708524"><time>2026-10-04T10:12:48Z</time></trkpt>
<trkpt lat="40.422488" lon="-3.708635"><time>2026-10-04T10:12:55Z</time></trkpt>
<trkpt lat="40.422518" lon="-3.708747"><time>2026-10-04T10:13:03Z</time></trkpt>
<trkpt lat="40.422547" lon="-3.708859"><time>2026-10-04T10:13:10Z</time></trkpt>
<trkpt lat="40.422576" lon="-3.708971"><time>2026-10-04T10:13:17Z</time></trkpt>
<trkpt lat="40.422606" lon="-3.709082"><time>2026-10-04T10:13:24Z</time></trkpt>
<trkpt lat="40.422635" lon="-3.709194"><time>2026-10-04T10:13:31Z</time></trkpt>
<trkpt lat="40.422665" lon="-3.709306"><time>2026-10-04T10:13:38Z</time></trkpt>
<trkpt lat="40.422694" lon="-3.709418"><time>2026-10-04T10:13:45Z</time></trkpt>
<trkpt lat="40.422724" lon="-3.709529"><time>2026-10-04T10:13:53Z</time></trkpt>
<trkpt lat="40.422753" lon="-3.709641"><time>2026-10-04T10:14:00Z</time></trkpt>
<trkpt lat="40.422782" lon="-3.709753"><time>2026-10-04T10:14:07Z</time></trkpt>
<trkpt lat="40.422812" lon="-3.709865"><time>2026-10-04T10:14:14Z</time></trkpt>
<trkpt lat="40.422841" lon="-3.709976"><time>2026-10-04T10:14:21Z</time></trkpt>
<trkpt lat="40.422871" lon="-3.710088"><time>2026-10-04T10:14:28Z</time></trkpt>
<trkpt lat="40.422900" lon="-3.710200"><time>2026-10-04T10:14:36Z</time></trkpt>
<trkpt lat="40.422929" lon="-3.710312"><time>2026-10-04T10:14:43Z</time></trkpt>
<trkpt lat="40.422959" lon="-3.710424"><time>2026-10-04T10:14:50Z</time></trkpt>
<trkpt lat="40.422988" lon="-3.710535"><time>2026-10-04T10:14:57Z</time></trkpt>
<trkpt lat="40.423018" lon="-3.710647"><time>2026-10-04T10:15:04Z</time></trkpt>
<trkpt lat="40.423047" lon="-3.710759"><time>2026-10-04T10:15:11Z</time></trkpt>
<trkpt lat="40.423076" lon="-3.710871"><time>2026-10-04T10:15:18Z</time></trkpt>
<trkpt lat="40.423106" lon="-3.710982"><time>2026-10-04T10:15:26Z</time></trkpt>
<trkpt lat="40.423135" lon="-3.711094"><time>2026-10-04T10:15:33Z</time></trkpt>
<trkpt lat="40.423165" lon="-3.711206"><time>2026-10-04T10:15:40Z</time></trkpt>
<trkpt lat="40.423194" lon="-3.711318"><time>2026-10-04T10:15:47Z</time></trkpt>
<trkpt lat="40.423224" lon="-3.711429"><time>2026-10-04T10:15:54Z</time></trkpt>
<trkpt lat="40.423253" lon="-3.711541"><time>2026-10-04T10:16:01Z</time></trkpt>
<trkpt lat="40.423282" lon="-3.711653"><time>2026-10-04T10:16:08Z</time></trkpt>
<trkpt lat="40.423312" lon="-3.711765"><time>2026-10-04T10:16:16Z</time></trkpt>
<trkpt lat="40.423341" lon="-3.711876"><time>2026-10-04T10:16:23Z</time></trkpt>
<trkpt lat="40.423371" lon="-3.711988"><time>2026-10-04T10:16:30Z</time></trkpt>
<trkpt lat="40.423400" lon="-3.712100"><time>2026-10-04T10:16:37Z</time></trkpt>
<trkpt lat="40.423412" lon="-3.712219"><time>2026-10-04T10:16:44Z</time></trkpt>
<trkpt lat="40.423425" lon="-3.712337"><time>2026-10-04T10:16:52Z</time></trkpt>
<trkpt lat="40.423437" lon="-3.712456"><time>2026-10-04T10:16:59Z</time></trkpt>
<trkpt lat="40.423450" lon="-3.712575"><time>2026-10-04T10:17:06Z</time></trkpt>
<trkpt lat="40.423462" lon="-3.712694"><time>2026-10-04T10:17:13Z</time></trkpt>
<trkpt lat="40.423475" lon="-3.712813"><time>2026-10-04T10:17:21Z</time></trkpt>
<trkpt lat="40.423488" lon="-3.712931"><time>2026-10-04T10:17:28Z</time></trkpt>
<trkpt lat="40.423500" lon="-3.713050"><time>2026-10-04T10:17:35Z</time></trkpt>
<trkpt lat="40.423513" lon="-3.713169"><time>2026-10-04T10:17:42Z</time></trkpt>
<trkpt lat="40.423525" lon="-3.713287"><time>2026-10-04T10:17:50Z</time></trkpt>
<trkpt lat="40.423538" lon="-3.713406"><time>2026-10-04T10:17:57Z</time></trkpt>
<trkpt lat="40.423550" lon="-3.713525"><time>2026-10-04T10:18:04Z</time></trkpt>
<trkpt lat="40.423563" lon="-3.713644"><time>2026-10-04T10:18:11Z</time></trkpt>
<trkpt lat="40.423575" lon="-3.713763"><time>2026-10-04T10:18:19Z</time></trkpt>
<trkpt lat="40.423588" lon="-3.713881"><time>2026-10-04T10:18:26Z</time></trkpt>
<trkpt lat="40.423600" lon="-3.714000"><time>2026-10-04T10:18:33Z</time></trkpt>
<trkpt lat="40.423612" lon="-3.714119"><time>2026-10-04T10:18:40Z</time></trkpt>
<trkpt lat="40.423625" lon="-3.714237"><time>2026-10-04T10:18:48Z</time></trkpt>
<trkpt lat="40.423637" lon="-3.714356"><time>2026-10-04T10:18:55Z</time></trkpt>
<trkpt lat="40.423650" lon="-3.714475"><time>2026-10-04T10:19:02Z</time></trkpt>
<trkpt lat="40.423662" lon="-3.714594"><time>2026-10-04T10:19:09Z</time></trkpt>
<trkpt lat="40.423675" lon="-3.714713"><time>2026-10-04T10:19:17Z</time></trkpt>
<trkpt lat="40.423687" lon="-3.714831"><time>2026-10-04T10:19:24Z</time></trkpt>
<trkpt lat="40.423700" lon="-3.714950"><time>2026-10-04T10:19:31Z</time></trkpt>
<trkpt lat="40.423713" lon="-3.715069"><time>2026-10-04T10:19:38Z</time></trkpt>
<trkpt lat="40.423725" lon="-3.715187"><time>2026-10-04T10:19:46Z</time></trkpt>
<trkpt lat="40.423738" lon="-3.715306"><time>2026-10-04T10:19:53Z</time></trkpt>
<trkpt lat="40.423750" lon="-3.715425"><time>2026-10-04T10:20:00Z</time></trkpt>
<trkpt lat="40.423763" lon="-3.715544"><time>2026-10-04T10:20:07Z</time></trkpt>
<trkpt lat="40.423775" lon="-3.715663"><time>2026-10-04T10:20:15Z</time></trkpt>
<trkpt lat="40.423788" lon="-3.715781"><time>2026-10-04T10:20:22Z</time></trkpt>
<trkpt lat="40.423800" lon="-3.715900"><time>2026-10-04T10:20:29Z</time></trkpt>
<trkpt lat="40.423812" lon="-3.716019"><time>2026-10-04T10:20:36Z</time></trkpt>
<trkpt lat="40.423825" lon="-3.716137"><time>2026-10-04T10:20:44Z</time></trkpt>
<trkpt lat="40.423837" lon="-3.716256"><time>2026-10-04T10:20:51Z</time></trkpt>
<trkpt lat="40.423850" lon="-3.716375"><time>2026-10-04T10:20:58Z</time></trkpt>
<trkpt lat="40.423862" lon="-3.716494"><time>2026-10-04T10:21:05Z</time></trkpt>
<trkpt lat="40.423875" lon="-3.716613"><time>2026-10-04T10:21:13Z</time></trkpt>
<trkpt lat="40.423887" lon="-3.716731"><time>2026-10-04T10:21:20Z</time></trkpt>
<trkpt lat="40.423900" lon="-3.716850"><time>2026-10-04T10:21:27Z</time></trkpt>
<trkpt lat="40.423913" lon="-3.716969"><time>2026-10-04T10:21:34Z</time></trkpt>
<trkpt lat="40.423925" lon="-3.717087"><time>2026-10-04T10:21:41Z</time></trkpt>
<trkpt lat="40.423938" lon="-3.717206"><time>2026-10-04T10:21:49Z</time></trkpt>
<trkpt lat="40.423950" lon="-3.717325"><time>2026-10-04T10:21:56Z</time></trkpt>
<trkpt lat="40.423963" lon="-3.717444"><time>2026-10-04T10:22:03Z</time></trkpt>
<trkpt lat="40.423975" lon="-3.717563"><time>2026-10-04T10:22:10Z</time></trkpt>
<trkpt lat="40.423988" lon="-3.717681"><time>2026-10-04T10:22:18Z</time></trkpt>
<trkpt lat="40.424000" lon="-3.717800"><time>2026-10-04T10:22:25Z</time></trkpt>
<trkpt lat="40.423940" lon="-3.717709"><time>2026-10-04T10:22:32Z</time></trkpt>
<trkpt lat="40.423880" lon="-3.717617"><time>2026-10-04T10:22:40Z</time></trkpt>
<trkpt lat="40.423820" lon="-3.717526"><time>2026-10-04T10:22:47Z</time></trkpt>
<trkpt lat="40.423760" lon="-3.717434"><time>2026-10-04T10:22:54Z</time></trkpt>
<trkpt lat="40.423700" lon="-3.717343"><time>2026-10-04T10:23:01Z</time></trkpt>
<trkpt lat="40.423640" lon="-3.717251"><time>2026-10-04T10:23:09Z</time></trkpt>
<trkpt lat="40.423580" lon="-3.717160"><time>2026-10-04T10:23:16Z</time></trkpt>
<trkpt lat="40.423520" lon="-3.717069"><time>2026-10-04T10:23:23Z</time></trkpt>
<trkpt lat="40.423460" lon="-3.716977"><time>2026-10-04T10:23:31Z</time></trkpt>
<trkpt lat="40.423400" lon="-3.716886"><time>2026-10-04T10:23:38Z</time></trkpt>
<trkpt lat="40.423340" lon="-3.716794"><time>2026-10-04T10:23:45Z</time></trkpt>
<trkpt lat="40.423280" lon="-3.716703"><time>2026-10-04T10:23:53Z</time></trkpt>
<trkpt lat="40.423220" lon="-3.716611"><time>2026-10-04T10:24:00Z</time></trkpt>
<trkpt lat="40.423160" lon="-3.716520"><time>2026-10-04T10:24:07Z</time></trkpt>
<trkpt lat="40.423100" lon="-3.716429"><time>2026-10-04T10:24:14Z</time></trkpt>
<trkpt lat="40.423040" lon="-3.716337"><time>2026-10-04T10:24:22Z</time></trkpt>
<trkpt lat="40.422980" lon="-3.716246"><time>2026-10-04T10:24:29Z</time></trkpt>
<trkpt lat="40.422920" lon="-3.716154"><time>2026-10-04T10:24:36Z</time></trkpt>
<trkpt lat="40.422860" lon="-3.716063"><time>2026-10-04T10:24:44Z</time></trkpt>
<trkpt lat="40.422800" lon="-3.715971"><time>2026-10-04T10:24:51Z</time></trkpt>
<trkpt lat="40.422740" lon="-3.715880"><time>2026-10-04T10:24:58Z</time></trkpt>
<trkpt lat="40.422680" lon="-3.715789"><time>2026-10-04T10:25:06Z</time></trkpt>
<trkpt lat="40.422620" lon="-3.715697"><time>2026-10-04T10:25:13Z</time></trkpt>
<trkpt lat="40.422560" lon="-3.715606"><time>2026-10-04T10:25:20Z</time></trkpt>
<trkpt lat="40.422500" lon="-3.715514"><time>2026-10-04T10:25:27Z</time></trkpt>
<trkpt lat="40.422440" lon="-3.715423"><time>2026-10-04T10:25:35Z</time></trkpt>
<trkpt lat="40.422380" lon="-3.715331"><time>2026-10-04T10:25:42Z</time></trkpt>
<trkpt lat="40.422320" lon="-3.715240"><time>2026-10-04T10:25:49Z</time></trkpt>
<trkpt lat="40.422260" lon="-3.715149"><time>2026-10-04T10:25:57Z</time></trkpt>
<trkpt lat="40.422200" lon="-3.715057"><time>2026-10-04T10:26:04Z</time></trkpt>
<trkpt lat="40.422140" lon="-3.714966"><time>2026-10-04T10:26:11Z</time></trkpt>
<trkpt lat="40.422080" lon="-3.714874"><time>2026-10-04T10:26:19Z</time></trkpt>
<trkpt lat="40.422020" lon="-3.714783"><time>2026-10-04T10:26:26Z</time></trkpt>
<trkpt lat="40.421960" lon="-3.714691"><time>2026-10-04T10:26:33Z</time></trkpt>
<trkpt lat="40.421900" lon="-3.714600"><time>2026-10-04T10:26:40Z</time></trkpt>
<trkpt lat="40.421810" lon="-3.714579"><time>2026-10-04T10:26:48Z</time></trkpt>
<trkpt lat="40.421721" lon="-3.714559"><time>2026-10-04T10:26:55Z</time></trkpt>
<trkpt lat="40.421631" lon="-3.714538"><time>2026-10-04T10:27:02Z</time></trkpt>
<trkpt lat="40.421541" lon="-3.714517"><time>2026-10-04T10:27:09Z</time></trkpt>
<trkpt lat="40.421452" lon="-3.714497"><time>2026-10-04T10:27:17Z</time></trkpt>
<trkpt lat="40.421362" lon="-3.714476"><time>2026-10-04T10:27:24Z</time></trkpt>
<trkpt lat="40.421272" lon="-3.714455"><time>2026-10-04T10:27:31Z</time></trkpt>
<trkpt lat="40.421183" lon="-3.714434"><time>2026-10-04T10:27:38Z</time></trkpt>
<trkpt lat="40.421093" lon="-3.714414"><time>2026-10-04T10:27:46Z</time></trkpt>
<trkpt lat="40.421003" lon="-3.714393"><time>2026-10-04T10:27:53Z</time></trkpt>
<trkpt lat="40.420914" lon="-3.714372"><time>2026-10-04T10:28:00Z</time></trkpt>
<trkpt lat="40.420824" lon="-3.714352"><time>2026-10-04T10:28:07Z</time></trkpt>
<trkpt lat="40.420734" lon="-3.714331"><time>2026-10-04T10:28:14Z</time></trkpt>
<trkpt lat="40.420645" lon="-3.714310"><time>2026-10-04T10:28:22Z</time></trkpt>
<trkpt lat="40.420555" lon="-3.714290"><time>2026-10-04T10:28:29Z</time></trkpt>
<trkpt lat="40.420466" lon="-3.714269"><time>2026-10-04T10:28:36Z</time></trkpt>
<trkpt lat="40.420376" lon="-3.714248"><time>2026-10-04T10:28:43Z</time></trkpt>
<trkpt lat="40.420286" lon="-3.714228"><time>2026-10-04T10:28:51Z</time></trkpt>
<trkpt lat="40.420197" lon="-3.714207"><time>2026-10-04T10:28:58Z</time></trkpt>
<trkpt lat="40.420107" lon="-3.714186"><time>2026-10-04T10:29:05Z</time></trkpt>
<trkpt lat="40.420017" lon="-3.714166"><time>2026-10-04T10:29:12Z</time></trkpt>
<trkpt lat="40.419928" lon="-3.714145"><time>2026-10-04T10:29:20Z</time></trkpt>
<trkpt lat="40.419838" lon="-3.714124"><time>2026-10-04T10:29:27Z</time></trkpt>
<trkpt lat="40.419748" lon="-3.714103"><time>2026-10-04T10:29:34Z</time></trkpt>
<trkpt lat="40.419659" lon="-3.714083"><time>2026-10-04T10:29:41Z</time></trkpt>
<trkpt lat="40.419569" lon="-3.714062"><time>2026-10-04T10:29:48Z</time></trkpt>
<trkpt lat="40.419479" lon="-3.714041"><time>2026-10-04T10:29:56Z</time></trkpt>
<trkpt lat="40.419390" lon="-3.714021"><time>2026-10-04T10:30:03Z</time></trkpt>
<trkpt lat="40.419300" lon="-3.714000"><time>2026-10-04T10:30:10Z</time></trkpt>
<trkpt lat="40.419207" lon="-3.714020"><time>2026-10-04T10:30:18Z</time></trkpt>
<trkpt lat="40.419113" lon="-3.714040"><time>2026-10-04T10:30:25Z</time></trkpt>
<trkpt lat="40.419020" lon="-3.714060"><time>2026-10-04T10:30:33Z</time></trkpt>
<trkpt lat="40.418927" lon="-3.714080"><time>2026-10-04T10:30:40Z</time></trkpt>
<trkpt lat="40.418833" lon="-3.714100"><time>2026-10-04T10:30:48Z</time></trkpt>
<trkpt lat="40.418740" lon="-3.714120"><time>2026-10-04T10:30:55Z</time></trkpt>
<trkpt lat="40.418647" lon="-3.714140"><time>2026-10-04T10:31:03Z</time></trkpt>
<trkpt lat="40.418553" lon="-3.714160"><time>2026-10-04T10:31:10Z</time></trkpt>
<trkpt lat="40.418460" lon="-3.714180"><time>2026-10-04T10:31:18Z</time></trkpt>
<trkpt lat="40.418367" lon="-3.714200"><time>2026-10-04T10:31:25Z</time></trkpt>
<trkpt lat="40.418273" lon="-3.714220"><time>2026-10-04T10:31:33Z</time></trkpt>
<trkpt lat="40.418180" lon="-3.714240"><time>2026-10-04T10:31:40Z</time></trkpt>
<trkpt lat="40.418087" lon="-3.714260"><time>2026-10-04T10:31:48Z</time></trkpt>
<trkpt lat="40.417993" lon="-3.714280"><time>2026-10-04T10:31:55Z</time></trkpt>
<trkpt lat="40.417900" lon="-3.714300"><time>2026-10-04T10:32:03Z</time></trkpt>
<trkpt lat="40.417854" lon="-3.714197"><time>2026-10-04T10:32:10Z</time></trkpt>
<trkpt lat="40.417808" lon="-3.714095"><time>2026-10-04T10:32:17Z</time></trkpt>
<trkpt lat="40.417762" lon="-3.713992"><time>2026-10-04T10:32:24Z</time></trkpt>
<trkpt lat="40.417716" lon="-3.713889"><time>2026-10-04T10:32:32Z</time></trkpt>
<trkpt lat="40.417670" lon="-3.713786"><time>2026-10-04T10:32:39Z</time></trkpt>
<trkpt lat="40.417624" lon="-3.713684"><time>2026-10-04T10:32:46Z</time></trkpt>
<trkpt lat="40.417578" lon="-3.713581"><time>2026-10-04T10:32:53Z</time></trkpt>
<trkpt lat="40.417532" lon="-3.713478"><time>2026-10-04T10:33:00Z</time></trkpt>
<trkpt lat="40.417486" lon="-3.713376"><time>2026-10-04T10:33:08Z</time></trkpt>
<trkpt lat="40.417441" lon="-3.713273"><time>2026-10-04T10:33:15Z</time></trkpt>
<trkpt lat="40.417395" lon="-3.713170"><time>2026-10-04T10:33:22Z</time></trkpt>
<trkpt lat="40.417349" lon="-3.713068"><time>2026-10-04T10:33:29Z</time></trkpt>
<trkpt lat="40.417303" lon="-3.712965"><time>2026-10-04T10:33:36Z</time></trkpt>
<trkpt lat="40.417257" lon="-3.712862"><time>2026-10-04T10:33:44Z</time></trkpt>
<trkpt lat="40.417211" lon="-3.712759"><time>2026-10-04T10:33:51Z</time></trkpt>
<trkpt lat="40.417165" lon="-3.712657"><time>2026-10-04T10:33:58Z</time></trkpt>
<trkpt lat="40.417119" lon="-3.712554"><time>2026-10-04T10:34:05Z</time></trkpt>
<trkpt lat="40.417073" lon="-3.712451"><time>2026-10-04T10:34:12Z</time></trkpt>
<trkpt lat="40.417027" lon="-3.712349"><time>2026-10-04T10:34:20Z</time></trkpt>
<trkpt lat="40.416981" lon="-3.712246"><time>2026-10-04T10:34:27Z</time></trkpt>
<trkpt lat="40.416935" lon="-3.712143"><time>2026-10-04T10:34:34Z</time></trkpt>
<trkpt lat="40.416889" lon="-3.712041"><time>2026-10-04T10:34:41Z</time></trkpt>
<trkpt lat="40.416843" lon="-3.711938"><time>2026-10-04T10:34:48Z</time></trkpt>
<trkpt lat="40.416797" lon="-3.711835"><time>2026-10-04T10:34:56Z</time></trkpt>
<trkpt lat="40.416751" lon="-3.711732"><time>2026-10-04T10:35:03Z</time></trkpt>
<trkpt lat="40.416705" lon="-3.711630"><time>2026-10-04T10:35:10Z</time></trkpt>
<trkpt lat="40.416659" lon="-3.711527"><time>2026-10-04T10:35:17Z</time></trkpt>
<trkpt lat="40.416614" lon="-3.711424"><time>2026-10-04T10:35:24Z</time></trkpt>
<trkpt lat="40.416568" lon="-3.711322"><time>2026-10-04T10:35:32Z</time></trkpt>
<trkpt lat="40.416522" lon="-3.711219"><time>2026-10-04T10:35:39Z</time></trkpt>
<trkpt lat="40.416476" lon="-3.711116"><time>2026-10-04T10:35:46Z</time></trkpt>
<trkpt lat="40.416430" lon="-3.711014"><time>2026-10-04T10:35:53Z</time></trkpt>
<trkpt lat="40.416384" lon="-3.710911"><time>2026-10-04T10:36:00Z</time></trkpt>
<trkpt lat="40.416338" lon="-3.710808"><time>2026-10-04T10:36:08Z</time></trkpt>
<trkpt lat="40.416292" lon="-3.710705"><time>2026-10-04T10:36:15Z</time></trkpt>
<trkpt lat="40.416246" lon="-3.710603"><time>2026-10-04T10:36:22Z</time></trkpt>
<trkpt lat="40.416200" lon="-3.710500"><time>2026-10-04T10:36:29Z</time></trkpt>
<trkpt lat="40.416174" lon="-3.710385"><time>2026-10-04T10:36:37Z</time></trkpt>
<trkpt lat="40.416148" lon="-3.710270"><time>2026-10-04T10:36:44Z</time></trkpt>
<trkpt lat="40.416122" lon="-3.710156"><time>2026-10-04T10:36:51Z</time></trkpt>
<trkpt lat="40.416096" lon="-3.710041"><time>2026-10-04T10:36:58Z</time></trkpt>
<trkpt lat="40.416070" lon="-3.709926"><time>2026-10-04T10:37:06Z</time></trkpt>
<trkpt lat="40.416044" lon="-3.709811"><time>2026-10-04T10:37:13Z</time></trkpt>
<trkpt lat="40.416019" lon="-3.709696"><time>2026-10-04T10:37:20Z</time></trkpt>
<trkpt lat="40.415993" lon="-3.709581"><time>2026-10-04T10:37:27Z</time></trkpt>
<trkpt lat="40.415967" lon="-3.709467"><time>2026-10-04T10:37:34Z</time></trkpt>
<trkpt lat="40.415941" lon="-3.709352"><time>2026-10-04T10:37:42Z</time></trkpt>
<trkpt lat="40.415915" lon="-3.709237"><time>2026-10-04T10:37:49Z</time></trkpt>
<trkpt lat="40.415889" lon="-3.709122"><time>2026-10-04T10:37:56Z</time></trkpt>
<trkpt lat="40.415863" lon="-3.709007"><time>2026-10-04T10:38:03Z</time></trkpt>
<trkpt lat="40.415837" lon="-3.708893"><time>2026-10-04T10:38:11Z</time></trkpt>
<trkpt lat="40.415811" lon="-3.708778"><time>2026-10-04T10:38:18Z</time></trkpt>
<trkpt lat="40.415785" lon="-3.708663"><time>2026-10-04T10:38:25Z</time></trkpt>
<trkpt lat="40.415759" lon="-3.708548"><time>2026-10-04T10:38:32Z</time></trkpt>
<trkpt lat="40.415733" lon="-3.708433"><time>2026-10-04T10:38:40Z</time></trkpt>
<trkpt lat="40.415707" lon="-3.708319"><time>2026-10-04T10:38:47Z</time></trkpt>
<trkpt lat="40.415681" lon="-3.708204"><time>2026-10-04T10:38:54Z</time></trkpt>
<trkpt lat="40.415656" lon="-3.708089"><time>2026-10-04T10:39:01Z</time></trkpt>
<trkpt lat="40.415630" lon="-3.707974"><time>2026-10-04T10:39:09Z</time></trkpt>
<trkpt lat="40.415604" lon="-3.707859"><time>2026-10-04T10:39:16Z</time></trkpt>
<trkpt lat="40.415578" lon="-3.707744"><time>2026-10-04T10:39:23Z</time></trkpt>
<trkpt lat="40.415552" lon="-3.707630"><time>2026-10-04T10:39:30Z</time></trkpt>
<trkpt lat="40.415526" lon="-3.707515"><time>2026-10-04T10:39:38Z</time></trkpt>
<trkpt lat="40.415500" lon="-3.707400"><time>2026-10-04T10:39:45Z</time></trkpt>
<trkpt lat="40.415548" lon="-3.707296"><time>2026-10-04T10:39:52Z</time></trkpt>
<trkpt lat="40.415596" lon="-3.707191"><time>2026-10-04T10:40:00Z</time></trkpt>
<trkpt lat="40.415643" lon="-3.707087"><time>2026-10-04T10:40:07Z</time></trkpt>
<trkpt lat="40.415691" lon="-3.706983"><time>2026-10-04T10:40:14Z</time></trkpt>
<trkpt lat="40.415739" lon="-3.706878"><time>2026-10-04T10:40:22Z</time></trkpt>
<trkpt lat="40.415787" lon="-3.706774"><time>2026-10-04T10:40:29Z</time></trkpt>
<trkpt lat="40.415835" lon="-3.706670"><time>2026-10-04T10:40:36Z</time></trkpt>
<trkpt lat="40.415883" lon="-3.706565"><time>2026-10-04T10:40:44Z</time></trkpt>
<trkpt lat="40.415930" lon="-3.706461"><time>2026-10-04T10:40:51Z</time></trkpt>
<trkpt lat="40.415978" lon="-3.706357"><time>2026-10-04T10:40:58Z</time></trkpt>
<trkpt lat="40.416026" lon="-3.706252"><time>2026-10-04T10:41:06Z</time></trkpt>
<trkpt lat="40.416074" lon="-3.706148"><time>2026-10-04T10:41:13Z</time></trkpt>
<trkpt lat="40.416122" lon="-3.706043"><time>2026-10-04T10:41:21Z</time></trkpt>
<trkpt lat="40.416170" lon="-3.705939"><time>2026-10-04T10:41:28Z</time></trkpt>
<trkpt lat="40.416217" lon="-3.705835"><time>2026-10-04T10:41:35Z</time></trkpt>
<trkpt lat="40.416265" lon="-3.705730"><time>2026-10-04T10:41:43Z</time></trkpt>
<trkpt lat="40.416313" lon="-3.705626"><time>2026-10-04T10:41:50Z</time></trkpt>
<trkpt lat="40.416361" lon="-3.705522"><time>2026-10-04T10:41:57Z</time></trkpt>
<trkpt lat="40.416409" lon="-3.705417"><time>2026-10-04T10:42:05Z</time></trkpt>
<trkpt lat="40.416457" lon="-3.705313"><time>2026-10-04T10:42:12Z</time></trkpt>
<trkpt lat="40.416504" lon="-3.705209"><time>2026-10-04T10:42:19Z</time></trkpt>
<trkpt lat="40.416552" lon="-3.705104"><time>2026-10-04T10:42:27Z</time></trkpt>
<trkpt lat="40.416600" lon="-3.705000"><time>2026-10-04T10:42:34Z</time></trkpt>
<trkpt lat="40.416623" lon="-3.704885"><time>2026-10-04T10:42:41Z</time></trkpt>
<trkpt lat="40.416646" lon="-3.704769"><time>2026-10-04T10:42:49Z</time></trkpt>
<trkpt lat="40.416669" lon="-3.704654"><time>2026-10-04T10:42:56Z</time></trkpt>
<trkpt lat="40.416692" lon="-3.704538"><time>2026-10-04T10:43:03Z</time></trkpt>
<trkpt lat="40.416715" lon="-3.704423"><time>2026-10-04T10:43:10Z</time></trkpt>
<trkpt lat="40.416738" lon="-3.704308"><time>2026-10-04T10:43:18Z</time></trkpt>
<trkpt lat="40.416762" lon="-3.704192"><time>2026-10-04T10:43:25Z</time></trkpt>
<trkpt lat="40.416785" lon="-3.704077"><time>2026-10-04T10:43:32Z</time></trkpt>
<trkpt lat="40.416808" lon="-3.703962"><time>2026-10-04T10:43:39Z</time></trkpt>
<trkpt lat="40.416831" lon="-3.703846"><time>2026-10-04T10:43:46Z</time></trkpt>
<trkpt lat="40.416854" lon="-3.703731"><time>2026-10-04T10:43:54Z</time></trkpt>
<trkpt lat="40.416877" lon="-3.703615"><time>2026-10-04T10:44:01Z</time></trkpt>
<trkpt lat="40.416900" lon="-3.703500"><time>2026-10-04T10:44:08Z</time></trkpt>
</trkseg></trk>
</gpx>
